[{"OBJECT_NAME":"STARLINK-30320","OBJECT_ID":"2023-124R","EPOCH":"2026-03-09T15:49:44.966208","MEAN_MOTION":15.30185437,"ECCENTRICITY":0.00013195,"INCLINATION":53.1622,"RA_OF_ASC_NODE":194.1885,"ARG_OF_PERICENTER":98.2342,"MEAN_ANOMALY":261.8808,"EPHEMERIS_TYPE":0,"CLASSIFICATION_TYPE":"U","NORAD_CAT_ID":57678,"ELEMENT_SET_NO":999,"REV_AT_EPOCH":14374,"BSTAR":1.9252015e-5,"MEAN_MOTION_DOT":2.11e-6,"MEAN_MOTION_DDOT":0},{"OBJECT_NAME":"COSMOS 1220 DEB","OBJECT_ID":"1980-089CJ","EPOCH":"2026-03-09T07:43:28.093152","MEAN_MOTION":15.40496181,"ECCENTRICITY":0.00585687,"INCLINATION":64.9701,"RA_OF_ASC_NODE":55.6717,"ARG_OF_PERICENTER":278.4574,"MEAN_ANOMALY":80.9929,"EPHEMERIS_TYPE":0,"CLASSIFICATION_TYPE":"U","NORAD_CAT_ID":25795,"ELEMENT_SET_NO":999,"REV_AT_EPOCH":55668,"BSTAR":0.00051020882,"MEAN_MOTION_DOT":0.00021921,"MEAN_MOTION_DDOT":0}]
